[{"OBJECT_NAME":"YUNHAI-1 01","OBJECT_ID":"2016-068A","EPOCH":"2026-03-09T23:53:51.242208","MEAN_MOTION":14.3266794,"ECCENTRICITY":0.00048409,"INCLINATION":98.5892,"RA_OF_ASC_NODE":80.9046,"ARG_OF_PERICENTER":339.8191,"MEAN_ANOMALY":20.2801,"EPHEMERIS_TYPE":0,"CLASSIFICATION_TYPE":"U","NORAD_CAT_ID":41857,"ELEMENT_SET_NO":999,"REV_AT_EPOCH":48762,"BSTAR":0.00014397496,"MEAN_MOTION_DOT":3.47e-6,"MEAN_MOTION_DDOT":0},{"OBJECT_NAME":"IRIDIUM 137","OBJECT_ID":"2017-083G","EPOCH":"2026-03-09T20:35:55.284000","MEAN_MOTION":14.34217602,"ECCENTRICITY":0.00024008,"INCLINATION":86.4028,"RA_OF_ASC_NODE":3.6635,"ARG_OF_PERICENTER":94.3456,"MEAN_ANOMALY":265.8014,"EPHEMERIS_TYPE":0,"CLASSIFICATION_TYPE":"U","NORAD_CAT_ID":43076,"ELEMENT_SET_NO":999,"REV_AT_EPOCH":42993,"BSTAR":5.494784e-6,"MEAN_MOTION_DOT":3.5e-7,"MEAN_MOTION_DDOT":0}]
